[
    {
        "Altitude(m)": 558271.1618467591,
        "Argument of Periapsis(deg)": 0.026491964442854003,
        "Eccentricity": 0.0,
        "Inclination(deg)": 53.0,
        "Latitude(deg)": 46.030747200138556,
        "Longitude(deg)": 112.79254965518645,
        "Mean Anomaly(deg)": 64.00277147031036,
        "RAAN(deg)": 164.96057347411204,
        "Satellite Name": "Starlink Shell 1 727",
        "Satellite Number": 727,
        "Semi-Major Axis(m)": 6931778.249405717,
        "Time(s)": 760
    },
    {
        "Altitude(m)": 558342.281586247,
        "Argument of Periapsis(deg)": 0.02684054292236524,
        "Eccentricity": 0.0,
        "Inclination(deg)": 53.0,
        "Latitude(deg)": 46.34376215123033,
        "Longitude(deg)": 113.53424582505625,
        "Mean Anomaly(deg)": 64.62960267386703,
        "RAAN(deg)": 164.9600547040346,
        "Satellite Name": "Starlink Shell 1 727",
        "Satellite Number": 727,
        "Semi-Major Axis(m)": 6931778.249405717,
        "Time(s)": 770
    },
    {
        "Altitude(m)": 558412.2801259528,
        "Argument of Periapsis(deg)": 0.027189121401876473,
        "Eccentricity": 0.0,
        "Inclination(deg)": 53.0,
        "Latitude(deg)": 46.651339177626106,
        "Longitude(deg)": 114.28484361378287,
        "Mean Anomaly(deg)": 65.2564338774238,
        "RAAN(deg)": 164.9595359339571,
        "Satellite Name": "Starlink Shell 1 727",
        "Satellite Number": 727,
        "Semi-Major Axis(m)": 6931778.249405717,
        "Time(s)": 780
    },
    {
        "Altitude(m)": 558481.1141279524,
        "Argument of Periapsis(deg)": 0.02753769988138771,
        "Eccentricity": 0.0,
        "Inclination(deg)": 53.0,
        "Latitude(deg)": 46.95335873493556,
        "Longitude(deg)": 115.0443806555633,
        "Mean Anomaly(deg)": 65.88326508098055,
        "RAAN(deg)": 164.95901716387965,
        "Satellite Name": "Starlink Shell 1 727",
        "Satellite Number": 727,
        "Semi-Major Axis(m)": 6931778.249405717,
        "Time(s)": 790
    },
    {
        "Altitude(m)": 558548.7410506718,
        "Argument of Periapsis(deg)": 0.02788627836089895,
        "Eccentricity": 0.0,
        "Inclination(deg)": 53.0,
        "Latitude(deg)": 47.24970015133517,
        "Longitude(deg)": 115.81288526569355,
        "Mean Anomaly(deg)": 66.51009628453721,
        "RAAN(deg)": 164.95849839380216,
        "Satellite Name": "Starlink Shell 1 727",
        "Satellite Number": 727,
        "Semi-Major Axis(m)": 6931778.249405717,
        "Time(s)": 800
    },
    {
        "Altitude(m)": 558615.1191700232,
        "Argument of Periapsis(deg)": 0.02823485684041019,
        "Eccentricity": 0.0,
        "Inclination(deg)": 53.0,
        "Latitude(deg)": 47.54024174418522,
        "Longitude(deg)": 116.59037639286419,
        "Mean Anomaly(deg)": 67.13692748809393,
        "RAAN(deg)": 164.95797962372473,
        "Satellite Name": "Starlink Shell 1 727",
        "Satellite Number": 727,
        "Semi-Major Axis(m)": 6931778.249405717,
        "Time(s)": 810
    },
    {
        "Altitude(m)": 558680.2076000653,
        "Argument of Periapsis(deg)": 0.028583435319921423,
        "Eccentricity": 0.0,
        "Inclination(deg)": 53.0,
        "Latitude(deg)": 47.824860947204726,
        "Longitude(deg)": 117.376863566516,
        "Mean Anomaly(deg)": 67.76375869165062,
        "RAAN(deg)": 164.9574608536472,
        "Satellite Name": "Starlink Shell 1 727",
        "Satellite Number": 727,
        "Semi-Major Axis(m)": 6931778.249405717,
        "Time(s)": 820
    },
    {
        "Altitude(m)": 558743.9663132604,
        "Argument of Periapsis(deg)": 0.028932013799432665,
        "Eccentricity": 0.0,
        "Inclination(deg)": 53.0,
        "Latitude(deg)": 48.10343444845838,
        "Longitude(deg)": 118.17234532914449,
        "Mean Anomaly(deg)": 68.39058989520736,
        "RAAN(deg)": 164.95694208356977,
        "Satellite Name": "Starlink Shell 1 727",
        "Satellite Number": 727,
        "Semi-Major Axis(m)": 6931778.249405717,
        "Time(s)": 830
    },
    {
        "Altitude(m)": 558806.3561602696,
        "Argument of Periapsis(deg)": 0.029280592278943897,
        "Eccentricity": 0.0,
        "Inclination(deg)": 53.0,
        "Latitude(deg)": 48.375838339356285,
        "Longitude(deg)": 118.97680918236354,
        "Mean Anomaly(deg)": 69.01742109876412,
        "RAAN(deg)": 164.95642331349228,
        "Satellite Name": "Starlink Shell 1 727",
        "Satellite Number": 727,
        "Semi-Major Axis(m)": 6931778.249405717,
        "Time(s)": 840
    },
    {
        "Altitude(m)": 558867.3388893344,
        "Argument of Periapsis(deg)": 0.029629170758455132,
        "Eccentricity": 0.0,
        "Inclination(deg)": 53.0,
        "Latitude(deg)": 48.64194827481629,
        "Longitude(deg)": 119.79023153721094,
        "Mean Anomaly(deg)": 69.64425230232078,
        "RAAN(deg)": 164.9559045434148,
        "Satellite Name": "Starlink Shell 1 727",
        "Satellite Number": 727,
        "Semi-Major Axis(m)": 6931778.249405717,
        "Time(s)": 850
    },
    {
        "Altitude(m)": 558926.8771651335,
        "Argument of Periapsis(deg)": 0.02997774923796637,
        "Eccentricity": 0.0,
        "Inclination(deg)": 53.0,
        "Latitude(deg)": 48.90163964467336,
        "Longitude(deg)": 120.61257599137448,
        "Mean Anomaly(deg)": 70.27108350587754,
        "RAAN(deg)": 164.95538577333733,
        "Satellite Name": "Starlink Shell 1 727",
        "Satellite Number": 727,
        "Semi-Major Axis(m)": 6931778.249405717,
        "Time(s)": 860
    },
    {
        "Altitude(m)": 558984.934587231,
        "Argument of Periapsis(deg)": 0.030326327717477602,
        "Eccentricity": 0.0,
        "Inclination(deg)": 53.0,
        "Latitude(deg)": 49.15478775634537,
        "Longitude(deg)": 121.44379413970674,
        "Mean Anomaly(deg)": 70.89791470943416,
        "RAAN(deg)": 164.95486700325986,
        "Satellite Name": "Starlink Shell 1 727",
        "Satellite Number": 727,
        "Semi-Major Axis(m)": 6931778.249405717,
        "Time(s)": 870
    },
    {
        "Altitude(m)": 559041.4757080283,
        "Argument of Periapsis(deg)": 0.030674906196988847,
        "Eccentricity": 0.0,
        "Inclination(deg)": 53.0,
        "Latitude(deg)": 49.401268028694375,
        "Longitude(deg)": 122.28382387932112,
        "Mean Anomaly(deg)": 71.52474591299095,
        "RAAN(deg)": 164.95434823318237,
        "Satellite Name": "Starlink Shell 1 727",
        "Satellite Number": 727,
        "Semi-Major Axis(m)": 6931778.249405717,
        "Time(s)": 880
    },
    {
        "Altitude(m)": 559096.4660502136,
        "Argument of Periapsis(deg)": 0.031023484676500086,
        "Eccentricity": 0.0,
        "Inclination(deg)": 53.0,
        "Latitude(deg)": 49.64095619692788,
        "Longitude(deg)": 123.13258941616311,
        "Mean Anomaly(deg)": 72.15157711654767,
        "RAAN(deg)": 164.9538294631049,
        "Satellite Name": "Starlink Shell 1 727",
        "Satellite Number": 727,
        "Semi-Major Axis(m)": 6931778.249405717,
        "Time(s)": 890
    },
    {
        "Altitude(m)": 559149.872123759,
        "Argument of Periapsis(deg)": 0.03137206315601132,
        "Eccentricity": 0.0,
        "Inclination(deg)": 53.0,
        "Latitude(deg)": 49.87372852829759,
        "Longitude(deg)": 123.99000129677844,
        "Mean Anomaly(deg)": 72.77840832010435,
        "RAAN(deg)": 164.95331069302745,
        "Satellite Name": "Starlink Shell 1 727",
        "Satellite Number": 727,
        "Semi-Major Axis(m)": 6931778.249405717,
        "Time(s)": 900
    },
    {
        "Altitude(m)": 559201.661442375,
        "Argument of Periapsis(deg)": 0.03172064163552255,
        "Eccentricity": 0.0,
        "Inclination(deg)": 53.0,
        "Latitude(deg)": 50.09946204825328,
        "Longitude(deg)": 124.85595495728757,
        "Mean Anomaly(deg)": 73.4052395236611,
        "RAAN(deg)": 164.95279192294996,
        "Satellite Name": "Starlink Shell 1 727",
        "Satellite Number": 727,
        "Semi-Major Axis(m)": 6931778.249405717,
        "Time(s)": 910
    },
    {
        "Altitude(m)": 559251.8025394962,
        "Argument of Periapsis(deg)": 0.0320692201150338,
        "Eccentricity": 0.0,
        "Inclination(deg)": 53.0,
        "Latitude(deg)": 50.31803477659982,
        "Longitude(deg)": 125.73033082036937,
        "Mean Anomaly(deg)": 74.03207072721777,
        "RAAN(deg)": 164.9522731528725,
        "Satellite Name": "Starlink Shell 1 727",
        "Satellite Number": 727,
        "Semi-Major Axis(m)": 6931778.249405717,
        "Time(s)": 920
    },
    {
        "Altitude(m)": 559300.264983738,
        "Argument of Periapsis(deg)": 0.032417798594545036,
        "Eccentricity": 0.0,
        "Inclination(deg)": 53.0,
        "Latitude(deg)": 50.529325973100484,
        "Longitude(deg)": 126.61299443253913,
        "Mean Anomaly(deg)": 74.65890193077449,
        "RAAN(deg)": 164.95175438279503,
        "Satellite Name": "Starlink Shell 1 727",
        "Satellite Number": 727,
        "Semi-Major Axis(m)": 6931778.249405717,
        "Time(s)": 930
    },
    {
        "Altitude(m)": 559347.019393835,
        "Argument of Periapsis(deg)": 0.03276637707405627,
        "Eccentricity": 0.0,
        "Inclination(deg)": 53.0,
        "Latitude(deg)": 50.73321639185268,
        "Longitude(deg)": 127.50379513406837,
        "Mean Anomaly(deg)": 75.28573313433124,
        "RAAN(deg)": 164.95123561271754,
        "Satellite Name": "Starlink Shell 1 727",
        "Satellite Number": 727,
        "Semi-Major Axis(m)": 6931778.249405717,
        "Time(s)": 940
    }
]